CCSDS_OMM_VERS = 2.0
CREATION_DATE  = 
ORIGINATOR     = 

OBJECT_NAME    = STARLINK-37002
OBJECT_ID      = 2026-049Y
CENTER_NAME    = EARTH
REF_FRAME      = TEME
TIME_SYSTEM    = UTC
MEAN_ELEMENT_THEORY = SGP/SGP4

EPOCH          = 2026-03-20T19:41:35.358432
MEAN_MOTION    = 16.00359997
ECCENTRICITY   = .0000568
INCLINATION    = 97.2773
RA_OF_ASC_NODE = 99.5096
ARG_OF_PERICENTER = 170.3743
MEAN_ANOMALY   = 189.7546

EPHEMERIS_TYPE = 0
CLASSIFICATION_TYPE = U
NORAD_CAT_ID   = 68164
ELEMENT_SET_NO = 999
REV_AT_EPOCH   = 116
BSTAR          = -.92965787E-3
MEAN_MOTION_DOT = -.481185E-2
MEAN_MOTION_DDOT = .84172413E-4

CCSDS_OMM_VERS = 2.0
CREATION_DATE  = 
ORIGINATOR     = 

OBJECT_NAME    = STARLINK-36971
OBJECT_ID      = 2026-049Z
CENTER_NAME    = EARTH
REF_FRAME      = TEME
TIME_SYSTEM    = UTC
MEAN_ELEMENT_THEORY = SGP/SGP4

EPOCH          = 2026-03-20T13:40:12.661536
MEAN_MOTION    = 16.01379724
ECCENTRICITY   = .00004049
INCLINATION    = 97.2765
RA_OF_ASC_NODE = 99.2387
ARG_OF_PERICENTER = 179.1967
MEAN_ANOMALY   = 180.9313

EPHEMERIS_TYPE = 0
CLASSIFICATION_TYPE = U
NORAD_CAT_ID   = 68165
ELEMENT_SET_NO = 999
REV_AT_EPOCH   = 112
BSTAR          = -.14322925E-2
MEAN_MOTION_DOT = -.784045E-2
MEAN_MOTION_DDOT = .21193595E-3

CCSDS_OMM_VERS = 2.0
CREATION_DATE  = 
ORIGINATOR     = 

OBJECT_NAME    = STARLINK-36273
OBJECT_ID      = 2026-049AA
CENTER_NAME    = EARTH
REF_FRAME      = TEME
TIME_SYSTEM    = UTC
MEAN_ELEMENT_THEORY = SGP/SGP4

EPOCH          = 2026-03-20T18:09:04.725216
MEAN_MOTION    = 16.01239572
ECCENTRICITY   = .00006488
INCLINATION    = 97.2750
RA_OF_ASC_NODE = 99.4439
ARG_OF_PERICENTER = 211.7263
MEAN_ANOMALY   = 148.3977

EPHEMERIS_TYPE = 0
CLASSIFICATION_TYPE = U
NORAD_CAT_ID   = 68166
ELEMENT_SET_NO = 999
REV_AT_EPOCH   = 115
BSTAR          = -.5628694E-3
MEAN_MOTION_DOT = -.306844E-2
MEAN_MOTION_DDOT = .36956624E-4

CCSDS_OMM_VERS = 2.0
CREATION_DATE  = 
ORIGINATOR     = 

OBJECT_NAME    = STARLINK-36969
OBJECT_ID      = 2026-050A
CENTER_NAME    = EARTH
REF_FRAME      = TEME
TIME_SYSTEM    = UTC
MEAN_ELEMENT_THEORY = SGP/SGP4

EPOCH          = 2026-03-19T13:41:02.541120
MEAN_MOTION    = 15.97343210
ECCENTRICITY   = .0000488
INCLINATION    = 53.1618
RA_OF_ASC_NODE = 232.5443
ARG_OF_PERICENTER = 318.1927
MEAN_ANOMALY   = 41.9065

EPHEMERIS_TYPE = 0
CLASSIFICATION_TYPE = U
NORAD_CAT_ID   = 68167
ELEMENT_SET_NO = 999
REV_AT_EPOCH   = 203
BSTAR          = -.16788E-2
MEAN_MOTION_DOT = -.762286E-2
MEAN_MOTION_DDOT = .19812E-3

CCSDS_OMM_VERS = 2.0
CREATION_DATE  = 
ORIGINATOR     = 

OBJECT_NAME    = STARLINK-36984
OBJECT_ID      = 2026-050B
CENTER_NAME    = EARTH
REF_FRAME      = TEME
TIME_SYSTEM    = UTC
MEAN_ELEMENT_THEORY = SGP/SGP4

EPOCH          = 2026-03-19T13:40:45.953184
MEAN_MOTION    = 15.97468217
ECCENTRICITY   = .0000565
INCLINATION    = 53.1620
RA_OF_ASC_NODE = 232.5441
ARG_OF_PERICENTER = 333.0752
MEAN_ANOMALY   = 27.0248

EPHEMERIS_TYPE = 0
CLASSIFICATION_TYPE = U
NORAD_CAT_ID   = 68168
ELEMENT_SET_NO = 999
REV_AT_EPOCH   = 203
BSTAR          = -.16463E-2
MEAN_MOTION_DOT = -.752821E-2
MEAN_MOTION_DDOT = .194E-3

CCSDS_OMM_VERS = 2.0
CREATION_DATE  = 
ORIGINATOR     = 

OBJECT_NAME    = STARLINK-37077
OBJECT_ID      = 2026-050C
CENTER_NAME    = EARTH
REF_FRAME      = TEME
TIME_SYSTEM    = UTC
MEAN_ELEMENT_THEORY = SGP/SGP4

EPOCH          = 2026-03-19T13:40:26.349024
MEAN_MOTION    = 15.97622802
ECCENTRICITY   = .0000745
INCLINATION    = 53.1619
RA_OF_ASC_NODE = 232.5425
ARG_OF_PERICENTER = 335.0992
MEAN_ANOMALY   = 25.0002

EPHEMERIS_TYPE = 0
CLASSIFICATION_TYPE = U
NORAD_CAT_ID   = 68169
ELEMENT_SET_NO = 999
REV_AT_EPOCH   = 203
BSTAR          = -.16046E-2
MEAN_MOTION_DOT = -.740191E-2
MEAN_MOTION_DDOT = .18853E-3

CCSDS_OMM_VERS = 2.0
CREATION_DATE  = 
ORIGINATOR     = 

OBJECT_NAME    = STARLINK-37003
OBJECT_ID      = 2026-050D
CENTER_NAME    = EARTH
REF_FRAME      = TEME
TIME_SYSTEM    = UTC
MEAN_ELEMENT_THEORY = SGP/SGP4

EPOCH          = 2026-03-19T13:40:06.896064
MEAN_MOTION    = 15.97788708
ECCENTRICITY   = .0000461
INCLINATION    = 53.1620
RA_OF_ASC_NODE = 232.5407
ARG_OF_PERICENTER = 327.9149
MEAN_ANOMALY   = 32.1853

EPHEMERIS_TYPE = 0
CLASSIFICATION_TYPE = U
NORAD_CAT_ID   = 68170
ELEMENT_SET_NO = 999
REV_AT_EPOCH   = 203
BSTAR          = -.15382E-2
MEAN_MOTION_DOT = -.716345E-2
MEAN_MOTION_DDOT = .17815E-3

CCSDS_OMM_VERS = 2.0
CREATION_DATE  = 
ORIGINATOR     = 

OBJECT_NAME    = STARLINK-37034
OBJECT_ID      = 2026-050E
CENTER_NAME    = EARTH
REF_FRAME      = TEME
TIME_SYSTEM    = UTC
MEAN_ELEMENT_THEORY = SGP/SGP4

EPOCH          = 2026-03-19T13:39:46.570464
MEAN_MOTION    = 15.97919140
ECCENTRICITY   = .0000585
INCLINATION    = 53.1619
RA_OF_ASC_NODE = 232.5395
ARG_OF_PERICENTER = 340.0636
MEAN_ANOMALY   = 20.0371

EPHEMERIS_TYPE = 0
CLASSIFICATION_TYPE = U
NORAD_CAT_ID   = 68171
ELEMENT_SET_NO = 999
REV_AT_EPOCH   = 203
BSTAR          = -.15903E-2
MEAN_MOTION_DOT = -.745719E-2
MEAN_MOTION_DDOT = .19165E-3

CCSDS_OMM_VERS = 2.0
CREATION_DATE  = 
ORIGINATOR     = 

OBJECT_NAME    = STARLINK-37031
OBJECT_ID      = 2026-050F
CENTER_NAME    = EARTH
REF_FRAME      = TEME
TIME_SYSTEM    = UTC
MEAN_ELEMENT_THEORY = SGP/SGP4

EPOCH          = 2026-03-19T13:39:25.217568
MEAN_MOTION    = 15.98076782
ECCENTRICITY   = .0000458
INCLINATION    = 53.1620
RA_OF_ASC_NODE = 232.5378
ARG_OF_PERICENTER = 346.3779
MEAN_ANOMALY   = 13.7239

EPHEMERIS_TYPE = 0
CLASSIFICATION_TYPE = U
NORAD_CAT_ID   = 68172
ELEMENT_SET_NO = 999
REV_AT_EPOCH   = 203
BSTAR          = -.15788E-2
MEAN_MOTION_DOT = -.746879E-2
MEAN_MOTION_DDOT = .1925E-3

CCSDS_OMM_VERS = 2.0
CREATION_DATE  = 
ORIGINATOR     = 

OBJECT_NAME    = STARLINK-37076
OBJECT_ID      = 2026-050G
CENTER_NAME    = EARTH
REF_FRAME      = TEME
TIME_SYSTEM    = UTC
MEAN_ELEMENT_THEORY = SGP/SGP4

EPOCH          = 2026-03-19T12:09:00.468288
MEAN_MOTION    = 15.98507778
ECCENTRICITY   = .0000645
INCLINATION    = 53.1615
RA_OF_ASC_NODE = 232.8571
ARG_OF_PERICENTER = 359.7564
MEAN_ANOMALY   = 0.3466

EPHEMERIS_TYPE = 0
CLASSIFICATION_TYPE = U
NORAD_CAT_ID   = 68173
ELEMENT_SET_NO = 999
REV_AT_EPOCH   = 202
BSTAR          = -.17873E-2
MEAN_MOTION_DOT = -.864982E-2
MEAN_MOTION_DDOT = .25162E-3

CCSDS_OMM_VERS = 2.0
CREATION_DATE  = 
ORIGINATOR     = 

OBJECT_NAME    = STARLINK-37078
OBJECT_ID      = 2026-050H
CENTER_NAME    = EARTH
REF_FRAME      = TEME
TIME_SYSTEM    = UTC
MEAN_ELEMENT_THEORY = SGP/SGP4

EPOCH          = 2026-03-19T13:38:45.418272
MEAN_MOTION    = 15.98372202
ECCENTRICITY   = .0000261
INCLINATION    = 53.1617
RA_OF_ASC_NODE = 232.5342
ARG_OF_PERICENTER = 74.2706
MEAN_ANOMALY   = 285.8353

EPHEMERIS_TYPE = 0
CLASSIFICATION_TYPE = U
NORAD_CAT_ID   = 68174
ELEMENT_SET_NO = 999
REV_AT_EPOCH   = 203
BSTAR          = -.16768E-2
MEAN_MOTION_DOT = -.805867E-2
MEAN_MOTION_DDOT = .22125E-3

CCSDS_OMM_VERS = 2.0
CREATION_DATE  = 
ORIGINATOR     = 

OBJECT_NAME    = STARLINK-36886
OBJECT_ID      = 2026-050J
CENTER_NAME    = EARTH
REF_FRAME      = TEME
TIME_SYSTEM    = UTC
MEAN_ELEMENT_THEORY = SGP/SGP4

EPOCH          = 2026-03-19T13:38:26.608992
MEAN_MOTION    = 15.98517353
ECCENTRICITY   = .0000812
INCLINATION    = 53.1618
RA_OF_ASC_NODE = 232.5329
ARG_OF_PERICENTER = 328.5582
MEAN_ANOMALY   = 31.5400

EPHEMERIS_TYPE = 0
CLASSIFICATION_TYPE = U
NORAD_CAT_ID   = 68175
ELEMENT_SET_NO = 999
REV_AT_EPOCH   = 203
BSTAR          = -.14987E-2
MEAN_MOTION_DOT = -.726912E-2
MEAN_MOTION_DDOT = .18427E-3

